LEMUR-2-KADI            
1 43184U 18014E   26134.07137765  .00326817  00000+0  13243-2 0  9997
2 43184  97.4473  63.3713 0005260 106.4420 253.7428 15.85440390455665
S-NET D                 
1 43186U 18014G   26134.15054988  .00003418  00000+0  17961-3 0  9994
2 43186  97.5393  39.1584 0009651 128.5909 231.6190 15.16336856453609
S-NET B                 
1 43187U 18014H   26134.16133899  .00003198  00000+0  16840-3 0  9995
2 43187  97.5398  39.1545 0010369 125.0027 235.2180 15.16306773453607
S-NET A                 
1 43188U 18014J   26133.29172531  .00003006  00000+0  15833-3 0  9994
2 43188  97.5407  38.4927 0010204 128.1780 232.0374 15.16337876453476
S-NET C                 
1 43189U 18014K   26134.16503205  .00003151  00000+0  16597-3 0  9997
2 43189  97.5426  39.4301 0011754 120.0321 240.2080 15.16297845452158
PAZ                     
1 43215U 18020A   26134.18483907  .00001156  00000+0  58246-4 0  9993
2 43215  97.4458 142.0534 0001717  87.4686 272.6745 15.19152616455844
GOES 17                 
1 43226U 18022A   26134.17544889 -.00000168  00000+0  00000+0 0  9996
2 43226   0.8509  86.1665 0000549 324.5623 154.8776  1.00271305 30084
LKW-4                   
1 43236U 18025A   26133.90879060  .00028262  00000+0  35606-3 0  9990
2 43236  97.6325 302.1773 0003138  84.4647 275.6967 15.59591267454682
ZHUHAI-1 OVS-02         
1 43440U 18040B   26134.23733295  .00004457  00000+0  18367-3 0  9995
2 43440  97.0410 153.4892 0004660  46.4252 313.7372 15.24552898447548
ZHUHAI-1 OHS-02         
1 43441U 18040C   26134.17538322  .00005065  00000+0  20320-3 0  9991
2 43441  97.0399 160.3367 0009099   5.3335 354.7999 15.25366220109094
GAOFEN-6                
1 43484U 18048A   26134.18899794 -.00000222  00000+0 -24809-4 0  9999
2 43484  97.7779 198.1152 0010618 288.0045  72.0008 14.76587482428374
LUOJIA-1 01             
1 43485U 18048B   26134.19724098  .00000834  00000+0  98840-4 0  9998
2 43485  97.8105 212.9332 0007794 226.5801 133.4767 14.87151178429165
PAKTES 1A               
1 43529U 18056A   26134.22809157  .00000951  00000+0  83776-4 0  9992
2 43529  98.1217 289.2792 0021475 221.0387 138.9220 14.98903215426834
PRSS-1                  
1 43530U 18056B   26134.16001346  .00000750  00000+0  10113-3 0  9992
2 43530  97.7835 202.9702 0001827  94.7516 265.3906 14.81933759423390
HAIYANG-1C              
1 43609U 18068A   26134.19888373 -.00000215  00000+0 -61176-4 0  9992
2 43609  98.5200 206.9957 0010656 189.0213 171.0782 14.34167083402210
SSTL S1-4               
1 43618U 18071A   26134.18089319  .00000480  00000+0  47456-4 0  9995
2 43618  97.5068   7.2016 0001127  74.7995 285.3351 14.96169240417851
HAIYANG-2B              
1 43655U 18081A   26134.21488002 -.00000049  00000+0 -51513-5 0  9996
2 43655  99.3300 143.4829 0001682  50.8706 309.2596 13.79306050380248
CFOSAT                  
1 43662U 18083A   26134.17632126  .00002076  00000+0  10994-3 0  9995
2 43662  97.3616 139.7082 0001821  61.0173 299.1243 15.16482790417280
TEN-KOH                 
1 43677U 18084G   26134.10066264  .00000667  00000+0  54802-4 0  9990
2 43677  98.0761 325.0331 0008350 227.6253 132.4264 15.02778496411041
DIWATA-2B               
1 43678U 18084H   26134.22379828  .00001751  00000+0  14489-3 0  9998
2 43678  98.1105 328.9762 0011916 288.3567  71.6359 15.00277699411124
STARS-AO                
1 43679U 18084J   26134.16618780  .00003592  00000+0  18745-3 0  9999
2 43679  98.0542 346.0456 0000688 303.9052  56.2114 15.16658259412319
AUTCUBE 2               
1 43681U 18084K   26134.10231238  .00002677  00000+0  16975-3 0  9991
2 43681  98.0741 338.4716 0009700 150.9040 209.2730 15.09846686411787
METOP-C                 
1 43689U 18087A   26134.14120141  .00000068  00000+0  51119-4 0  9998
2 43689  98.6661 194.3633 0000282 125.2650 234.8553 14.21502403389990
ES'HAIL 2               
1 43700U 18090A   26134.18144241  .00000158  00000+0  00000+0 0  9995
2 43700   0.0137 275.2663 0001543 172.5965 235.2438  1.00274753 27337
MOHAMMED VI-B           
1 43717U 18095A   26134.17058271  .00000479  00000+0  75066-4 0  9999
2 43717  97.9566 206.9615 0001284  79.7290 280.4065 14.77071274403163
HYSIS                   
1 43719U 18096A   26134.17337753  .00000360  00000+0  56246-4 0  9995
2 43719  97.9855 201.1846 0000860 105.5781 254.5525 14.78619906402399
COSMOS 2530 (RODNIK-S *)
1 43751U 18097A   26134.24582134  .00000063  00000+0  38026-3 0  9990
2 43751  82.5143 243.3425 0020767 110.1138 250.2179 12.42880810338076
COSMOS 2531 (RODNIK-S *)
1 43752U 18097B   26134.18844209  .00000141  00000+0  94133-3 0  9996
2 43752  82.5187 244.4252 0017853 128.0252 232.2442 12.42912680338087
COSMOS 2532 (RODNIK-S *)
1 43753U 18097C   26134.21663053  .00000121  00000+0  80326-3 0  9994
2 43753  82.5133 243.2090 0019217 130.0992 230.1775 12.42909242338059
MINXSS-2                
1 43758U 18099A   26134.16897497  .00024708  00000+0  53149-3 0  9996
2 43758  97.4553 209.5181 0007363  39.8460 320.3328 15.44611401408872
