OBJECT_NAME,OBJECT_ID,EPOCH,MEAN_MOTION,ECCENTRICITY,INCLINATION,RA_OF_ASC_NODE,ARG_OF_PERICENTER,MEAN_ANOMALY,EPHEMERIS_TYPE,CLASSIFICATION_TYPE,NORAD_CAT_ID,ELEMENT_SET_NO,REV_AT_EPOCH,BSTAR,MEAN_MOTION_DOT,MEAN_MOTION_DDOT
LEMUR-2-KADI,2018-014E,2026-05-14T01:42:47.028960,15.85440390,.000526,97.4473,63.3713,106.4420,253.7428,0,U,43184,999,45566,.13243E-2,.326817E-2,0
S-NET D,2018-014G,2026-05-14T03:36:47.509632,15.16336856,.0009651,97.5393,39.1584,128.5909,231.6190,0,U,43186,999,45360,.17961E-3,.3418E-4,0
S-NET B,2018-014H,2026-05-14T03:52:19.688736,15.16306773,.0010369,97.5398,39.1545,125.0027,235.2180,0,U,43187,999,45360,.1684E-3,.3198E-4,0
S-NET A,2018-014J,2026-05-13T07:00:05.066784,15.16337876,.00102049,97.5407,38.4927,128.1780,232.0374,0,U,43188,999,45347,.15832815E-3,.3006E-4,0
S-NET C,2018-014K,2026-05-14T03:57:38.769120,15.16297845,.0011754,97.5426,39.4301,120.0321,240.2080,0,U,43189,999,45215,.16597E-3,.3151E-4,0
PAZ,2018-020A,2026-05-14T04:26:10.095648,15.19152616,.0001717,97.4458,142.0534,87.4686,272.6745,0,U,43215,999,45584,.58246E-4,.1156E-4,0
GOES 17,2018-022A,2026-05-14T04:12:38.784096,1.00271305,.0000549,0.8509,86.1665,324.5623,154.8776,0,U,43226,999,3008,0,-.168E-5,0
LKW-4,2018-025A,2026-05-13T21:48:39.507840,15.59591267,.0003138,97.6325,302.1773,84.4647,275.6967,0,U,43236,999,45468,.35606E-3,.28262E-3,0
ZHUHAI-1 OVS-02,2018-040B,2026-05-14T05:41:45.566880,15.24552898,.000466,97.0410,153.4892,46.4252,313.7372,0,U,43440,999,44754,.18367E-3,.4457E-4,0
ZHUHAI-1 OHS-02,2018-040C,2026-05-14T04:12:33.110208,15.25366220,.0009099,97.0399,160.3367,5.3335,354.7999,0,U,43441,999,10909,.2032E-3,.5065E-4,0
GAOFEN-6,2018-048A,2026-05-14T04:32:09.422016,14.76587482,.0010618,97.7779,198.1152,288.0045,72.0008,0,U,43484,999,42837,-.24809E-4,-.222E-5,0
LUOJIA-1 01,2018-048B,2026-05-14T04:44:01.620672,14.87151178,.0007794,97.8105,212.9332,226.5801,133.4767,0,U,43485,999,42916,.9884E-4,.834E-5,0
PAKTES 1A,2018-056A,2026-05-14T05:28:27.111648,14.98903215,.0021475,98.1217,289.2792,221.0387,138.9220,0,U,43529,999,42683,.83776E-4,.951E-5,0
PRSS-1,2018-056B,2026-05-14T03:50:25.162944,14.81933759,.0001827,97.7835,202.9702,94.7516,265.3906,0,U,43530,999,42339,.10113E-3,.75E-5,0
HAIYANG-1C,2018-068A,2026-05-14T04:46:23.554272,14.34167083,.0010656,98.5200,206.9957,189.0213,171.0782,0,U,43609,999,40221,-.61176E-4,-.215E-5,0
SSTL S1-4,2018-071A,2026-05-14T04:20:29.171616,14.96169240,.0001127,97.5068,7.2016,74.7995,285.3351,0,U,43618,999,41785,.47456E-4,.48E-5,0
HAIYANG-2B,2018-081A,2026-05-14T05:09:25.633728,13.79306050,.0001682,99.3300,143.4829,50.8706,309.2596,0,U,43655,999,38024,-.51513E-5,-.49E-6,0
CFOSAT,2018-083A,2026-05-14T04:13:54.156864,15.16482790,.0001821,97.3616,139.7082,61.0173,299.1243,0,U,43662,999,41728,.10994E-3,.2076E-4,0
TEN-KOH,2018-084G,2026-05-14T02:24:57.252096,15.02778496,.000835,98.0761,325.0331,227.6253,132.4264,0,U,43677,999,41104,.54802E-4,.667E-5,0
DIWATA-2B,2018-084H,2026-05-14T05:22:16.171392,15.00277699,.0011916,98.1105,328.9762,288.3567,71.6359,0,U,43678,999,41112,.14489E-3,.1751E-4,0
STARS-AO,2018-084J,2026-05-14T03:59:18.625920,15.16658259,.0000688,98.0542,346.0456,303.9052,56.2114,0,U,43679,999,41231,.18745E-3,.3592E-4,0
AUTCUBE 2,2018-084K,2026-05-14T02:27:19.789632,15.09846686,.00097,98.0741,338.4716,150.9040,209.2730,0,U,43681,999,41178,.16975E-3,.2677E-4,0
METOP-C,2018-087A,2026-05-14T03:23:19.801824,14.21502403,.0000282,98.6661,194.3633,125.2650,234.8553,0,U,43689,999,38999,.51119E-4,.68E-6,0
ES'HAIL 2,2018-090A,2026-05-14T04:21:16.624224,1.00274753,.0001543,0.0137,275.2663,172.5965,235.2438,0,U,43700,999,2733,0,.158E-5,0
MOHAMMED VI-B,2018-095A,2026-05-14T04:05:38.346144,14.77071274,.0001284,97.9566,206.9615,79.7290,280.4065,0,U,43717,999,40316,.75066E-4,.479E-5,0
HYSIS,2018-096A,2026-05-14T04:09:39.818592,14.78619906,.000086,97.9855,201.1846,105.5781,254.5525,0,U,43719,999,40239,.56246E-4,.36E-5,0
COSMOS 2530 (RODNIK-S 16),2018-097A,2026-05-14T05:53:58.963776,12.42880810,.0020767,82.5143,243.3425,110.1138,250.2179,0,U,43751,999,33807,.38026E-3,.63E-6,0
COSMOS 2531 (RODNIK-S 17),2018-097B,2026-05-14T04:31:21.396576,12.42912680,.0017853,82.5187,244.4252,128.0252,232.2442,0,U,43752,999,33808,.94133E-3,.141E-5,0
COSMOS 2532 (RODNIK-S 18),2018-097C,2026-05-14T05:11:56.877792,12.42909242,.0019217,82.5133,243.2090,130.0992,230.1775,0,U,43753,999,33805,.80326E-3,.121E-5,0
MINXSS-2,2018-099A,2026-05-14T04:03:19.437408,15.44611401,.0007363,97.4553,209.5181,39.8460,320.3328,0,U,43758,999,40887,.53149E-3,.24708E-3,0
